NORAD_CAT_ID,OBJECT_NAME,OBJECT_TYPE,EPOCH,MEAN_MOTION,ECCENTRICITY,INCLINATION,RA_OF_ASC_NODE,ARG_OF_PERICENTER,MEAN_ANOMALY,BSTAR,MEAN_MOTION_DOT,MEAN_MOTION_DDOT,TLE_LINE0,TLE_LINE1,TLE_LINE2,SEMIMAJOR_AXIS,PERIOD,APOGEE,PERIGEE,DECAYED
51771.0,STARLINK-3614,PAYLOAD,2022-04-11 14:00:01,15.73275056,0.0001351,53.2135,281.2156,65.6362,52.6507,-0.00048286,-0.00068058,0.0,0 STARLINK-3614,1 51771U 22017D   22101.58334491 -.00068058  00000-0 -48286-3 0  9996,2 51771  53.2135 281.2156 0001351  65.6362  52.6507 15.73275056  3701,6727.681,91.529,350.455,348.63699999999994,0.0
51771.0,STARLINK-3614,PAYLOAD,2022-04-11 20:00:01,15.73185113,0.0001306,53.213,279.9807,51.6969,43.2782,0.00031483,0.00043767,0.0,0 STARLINK-3614,1 51771U 22017D   22101.83334491  .00043767  00000-0  31483-3 0  9993,2 51771  53.2130 279.9807 0001306  51.6969  43.2782 15.73185113  8341,6727.938,91.534,350.681,348.9240000000001,0.0
51771.0,STARLINK-3614,PAYLOAD,2022-04-11 22:00:00,15.73161824,0.0001356,53.213,279.5685,49.5244,157.6893,0.00079063,0.00111642,0.0,0 STARLINK-3614,1 51771U 22017D   22101.91667824  .00111642  00000-0  79063-3 0  9995,2 51771  53.2130 279.5685 0001356  49.5244 157.6893 15.73161824  3697,6728.004,91.535,350.781,348.957,0.0
51771.0,STARLINK-3614,PAYLOAD,2022-04-12 12:00:00,15.73231165,0.0001286999999999,53.2127,276.6794,65.1786,207.6696,-0.00032664,-0.00046271,0.0,0 STARLINK-3614,1 51771U 22017D   22102.50001157 -.00046271  00000-0 -32664-3 0  9995,2 51771  53.2127 276.6794 0001287  65.1786 207.6696 15.73231165  8441,6727.806,91.531,350.537,348.805,0.0
51771.0,STARLINK-3614,PAYLOAD,2022-04-12 14:00:01,15.73240684,0.0001327,53.2127,276.2676,61.401,323.6832,-0.00064171,-0.0008988,0.0,0 STARLINK-3614,1 51771U 22017D   22102.58334491 -.00089880  00000-0 -64171-3 0  9994,2 51771  53.2127 276.2676 0001327  61.4010 323.6832 15.73240684  3712,6727.779,91.531,350.537,348.751,0.0
51771.0,STARLINK-3614,PAYLOAD,2022-04-12 22:00:00,15.73147499,0.0001452,53.2127,274.6196,50.9262,63.1168,-1.7012999999999998e-05,-3.001e-05,0.0,0 STARLINK-3614,1 51771U 22017D   22102.91667824 -.00003001  00000-0 -17013-4 0  9995,2 51771  53.2127 274.6196 0001452  50.9262  63.1168 15.73147499  3686,6728.045,91.536,350.88699999999994,348.93300000000005,0.0
51771.0,STARLINK-3614,PAYLOAD,2022-04-13 14:00:03,15.73325719,0.0001259,53.2177,271.3001,54.6332,237.1441,-0.0052296,-0.00681582,0.0,0 STARLINK-3614,1 51771U 22017D   22103.58336806 -.00681582  00000-0 -52296-2 0  9998,2 51771  53.2177 271.3001 0001259  54.6332 237.1441 15.73325719  8623,6727.5369999999975,91.526,350.249,348.555,0.0
51771.0,STARLINK-3614,PAYLOAD,2022-04-13 22:00:00,15.7284056,0.000109,53.2174,269.6506,58.7699,321.6638,-0.0056301,-0.00715628,0.0,0 STARLINK-3614,1 51771U 22017D   22103.91667824 -.00715628  00000-0 -56301-2 0  9992,2 51771  53.2174 269.6506 0001090  58.7699 321.6638 15.72840560  3700,6728.92,91.554,351.519,350.052,0.0
51771.0,STARLINK-3614,PAYLOAD,2022-04-14 06:00:00,15.72330236,0.0001305,53.2174,267.9986,46.792,61.8309,-0.0057481,-0.00714916,0.0,0 STARLINK-3614,1 51771U 22017D   22104.25001157 -.00714916  00000-0 -57481-2 0  9990,2 51771  53.2174 267.9986 0001305  46.7920  61.8309 15.72330236  8725,6730.376,91.584,353.119,351.36300000000006,0.0
51771.0,STARLINK-3614,PAYLOAD,2022-04-14 14:00:01,15.71821624,0.0001574,53.2175,266.3505,42.7981,153.399,-0.0058953999999999,-0.00717339,0.0,0 STARLINK-3614,1 51771U 22017D   22104.58334491 -.00717339  00000-0 -58954-2 0  9994,2 51771  53.2175 266.3505 0001574  42.7981 153.3990 15.71821624  3708,6731.828,91.613,354.75199999999984,352.6330000000001,0.0
51771.0,STARLINK-3614,PAYLOAD,2022-04-14 22:00:00,15.71310031,0.0001176,53.2172,264.7044,63.4069,219.7517,-0.0059942,-0.00713878,0.0,0 STARLINK-3614,1 51771U 22017D   22104.91667824 -.00713878  00000-0 -59942-2 0  9992,2 51771  53.2172 264.7044 0001176  63.4069 219.7517 15.71310031  3707,6733.2890000000025,91.643,355.946,354.362,0.0
51771.0,STARLINK-3614,PAYLOAD,2022-04-15 06:00:00,15.70800857,0.0001244,53.2174,263.0561,45.5163,323.9931,-0.0061445,-0.00716014,0.0,0 STARLINK-3614,1 51771U 22017D   22105.25001157 -.00716014  00000-0 -61445-2 0  9997,2 51771  53.2174 263.0561 0001244  45.5163 323.9931 15.70800857  8888,6734.744000000002,91.673,357.44699999999995,355.771,0.0
51771.0,STARLINK-3614,PAYLOAD,2022-04-15 14:00:01,15.70292586,0.0001518,53.2175,261.41200000000003,39.1759,56.0689,-0.0063008999999999,-0.00718535,0.0,0 STARLINK-3614,1 51771U 22017D   22105.58334491 -.00718535  00000-0 -63009-2 0  9991,2 51771  53.2175 261.4120 0001518  39.1759  56.0689 15.70292586  3698,6736.196999999999,91.703,359.085,357.04,0.0
51771.0,STARLINK-3614,PAYLOAD,2022-04-15 22:00:00,15.69779475,0.0001459,53.2172,259.7692,47.6216,132.7473,-0.0063804,-0.00712616,0.0,0 STARLINK-3614,1 51771U 22017D   22105.91667824 -.00712616  00000-0 -63804-2 0  9994,2 51771  53.2172 259.7692 0001459  47.6216 132.7473 15.69779475  3682,6737.665,91.733,360.513,358.547,0.0
51771.0,STARLINK-3614,PAYLOAD,2022-04-16 04:00:00,15.69399427,0.0001567,53.2174,258.5355,40.7454,113.0644,-0.0065235,-0.0071679,0.0,0 STARLINK-3614,1 51771U 22017D   22106.16667824 -.00716790  00000-0 -65235-2 0  9999,2 51771  53.2174 258.5355 0001567  40.7454 113.0644 15.69399427  9026,6738.753000000002,91.755,361.674,359.56199999999984,0.0
51771.0,STARLINK-3614,PAYLOAD,2022-04-16 14:00:01,15.68763698,0.0001589,53.2175,256.4844,33.0187,315.7586,-0.0067289,-0.00719816,0.0,0 STARLINK-3614,1 51771U 22017D   22106.58334491 -.00719816  00000-0 -67289-2 0  9999,2 51771  53.2175 256.4844 0001589  33.0187 315.7586 15.68763698  3708,6740.573,91.792,363.509,361.367,0.0
51771.0,STARLINK-3614,PAYLOAD,2022-04-16 22:00:01,15.68251998,0.0001312,53.217,254.8453,45.4593,26.6687,-0.0068359,-0.00716202,0.0,0 STARLINK-3614,1 51771U 22017D   22106.91668981 -.00716202  00000-0 -68359-2 0  9995,2 51771  53.2170 254.8453 0001312  45.4593  26.6687 15.68251998  3708,6742.0390000000025,91.822,364.789,363.02,0.0
51771.0,STARLINK-3614,PAYLOAD,2022-04-17 06:00:00,15.67740564,0.0001589,53.2171,253.2045,37.7228,117.0143,-0.0069571,-0.00713972,0.0,0 STARLINK-3614,1 51771U 22017D   22107.25001157 -.00713972  00000-0 -69571-2 0  9997,2 51771  53.2171 253.2045 0001589  37.7228 117.0143 15.67740564  9196,6743.505,91.852,366.442,364.299,0.0
51771.0,STARLINK-3614,PAYLOAD,2022-04-17 14:00:01,15.67230971,0.0001721999999999,53.2175,251.5681,38.3878,198.4085,-0.0071112,-0.00714671,0.0,0 STARLINK-3614,1 51771U 22017D   22107.58334491 -.00714671  00000-0 -71112-2 0  9994,2 51771  53.2175 251.5681 0001722  38.3878 198.4085 15.67230971  3710,6744.967,91.882,367.994,365.671,0.0
51771.0,STARLINK-3614,PAYLOAD,2022-04-17 22:00:00,15.66722988,0.0001333,53.2173,249.9325,46.0727,272.16900000000004,-0.0072839,-0.00716738,0.0,0 STARLINK-3614,1 51771U 22017D   22107.91667824 -.00716738  00000-0 -72839-2 0  9993,2 51771  53.2173 249.9325 0001333  46.0727 272.1690 15.66722988  3693,6746.425,91.912,369.189,367.391,0.0
51771.0,STARLINK-3614,PAYLOAD,2022-04-18 08:00:01,15.66085418,0.0001597,53.2174,247.8867,40.4568,108.7338,-0.0074857,-0.00717741,0.0,0 STARLINK-3614,1 51771U 22017D   22108.33334491 -.00717741  00000-0 -74857-2 0  9998,2 51771  53.2174 247.8867 0001597  40.4568 108.7338 15.66085418  9368,6748.255999999999,91.949,371.199,369.043,0.0
51771.0,STARLINK-3614,PAYLOAD,2022-04-18 14:00:01,15.65701193,0.0001837,53.2174,246.6631,31.3898,87.9093,-0.0075693,-0.00714878,0.0,0 STARLINK-3614,1 51771U 22017D   22108.58334491 -.00714878  00000-0 -75693-2 0  9992,2 51771  53.2174 246.6631 0001837  31.3898  87.9093 15.65701193  3719,6749.36,91.972,372.465,369.985,0.0
51771.0,STARLINK-3614,PAYLOAD,2022-04-18 22:00:00,15.65193195,0.0001573,53.217,245.0309,43.2227,155.684,-0.0077611,-0.00717826,0.0,0 STARLINK-3614,1 51771U 22017D   22108.91667824 -.00717826  00000-0 -77611-2 0  9996,2 51771  53.2170 245.0309 0001573  43.2227 155.6840 15.65193195  3704,6750.82,92.001,373.747,371.62300000000016,0.0
51771.0,STARLINK-3614,PAYLOAD,2022-04-19 14:00:01,15.64173277,0.0001709,53.2173,241.7691,31.8245,324.4615,-0.0080826,-0.00717708,0.0,0 STARLINK-3614,1 51771U 22017D   22109.58334491 -.00717708  00000-0 -80826-2 0  9992,2 51771  53.2173 241.7691 0001709  31.8245 324.4615 15.64173277  9562,6753.754,92.061,376.774,374.465,0.0
51771.0,STARLINK-3614,PAYLOAD,2022-04-20 14:00:01,15.62640347,0.0002019,53.2175,236.8862,30.6734,197.0863,-0.0085212999999999,-0.0071263,0.0,0 STARLINK-3614,1 51771U 22017D   22110.58334491 -.00712630  00000-0 -85213-2 0  9998,2 51771  53.2175 236.8862 0002019  30.6734 197.0863 15.62640347  9715,6758.170999999999,92.152,381.4,378.671,0.0
51771.0,STARLINK-3614,PAYLOAD,2022-04-20 22:00:00,15.62134087,0.0001538,53.2172,235.261,38.3521,265.3381,-0.0087655,-0.00718035,0.0,0 STARLINK-3614,1 51771U 22017D   22110.91667824 -.00718035  00000-0 -87655-2 0  9991,2 51771  53.2172 235.2610 0001538  38.3521 265.3381 15.62134087  3683,6759.630999999999,92.182,382.535,380.456,0.0
51771.0,STARLINK-3614,PAYLOAD,2022-04-21 14:00:01,15.61112894,0.0002035,53.2173,232.0148,25.7859,67.9302,-0.0090957,-0.00716258,0.0,0 STARLINK-3614,1 51771U 22017D   22111.58334491 -.00716258  00000-0 -90957-2 0  9990,2 51771  53.2173 232.0148 0002035  25.7859  67.9302 15.61112894  3750,6762.578,92.242,385.819,383.067,0.0
51771.0,STARLINK-3614,PAYLOAD,2022-04-21 22:00:00,15.60603152,0.0001549,53.2171,230.393,44.4145,123.3954,-0.009283,-0.00716567,0.0,0 STARLINK-3614,1 51771U 22017D   22111.91667824 -.00716567  00000-0 -92830-2 0  9991,2 51771  53.2171 230.3930 0001549  44.4145 123.3954 15.60603152  3686,6764.051,92.272,386.963,384.86800000000005,0.0
51771.0,STARLINK-3614,PAYLOAD,2022-04-22 14:00:01,15.59582695,0.000183,53.2172,227.1541,31.4292,282.7295,-0.0096413,-0.00715677,0.0,0 STARLINK-3614,1 51771U 22017D   22112.58334491 -.00715677  00000-0 -96413-2 0  9998,2 51771  53.2172 227.1541 0001830  31.4292 282.7295 15.59582695  3708,6767.001,92.332,390.104,387.628,0.0
